COSMOS 2426 (717)       
1 29671U 06062B   20085.34362530  .00000022  00000-0  10000-3 0  9998
2 29671  64.9966 270.7532 0019759 169.7487  35.5059  2.12962326103101
COSMOS 2433 (720)       
1 32275U 07052A   20086.26486402 -.00000055  00000-0  10000-3 0  9996
2 32275  65.9567  31.6913 0004483 278.1747  10.6578  2.13104196 96635
COSMOS 2432 (719)       
1 32276U 07052B   20084.43320556 -.00000066  00000-0  10000-3 0  9993
2 32276  65.9678  31.8397 0012630 325.5347 308.4802  2.13103607 96592
COSMOS 2434 (721)       
1 32393U 07065A   20085.34206049  .00000021  00000-0  00000+0 0  9993
2 32393  64.6016 269.3043 0005184  82.9376 105.4292  2.13103003 95320
COSMOS 2436 (723)       
1 32395U 07065C   20085.39193844  .00000021  00000-0  10000-3 0  9993
2 32395  64.6154 269.3513 0015285   8.2057 354.6900  2.13102934 95266
COSMOS 2456 (730)       
1 36111U 09070A   20086.05584047  .00000043  00000-0  00000+0 0  9993
2 36111  64.2185 148.9481 0004752 310.0619 239.2887  2.13102725 80003
COSMOS 2457 (733)       
1 36112U 09070B   20085.89077051  .00000043  00000-0  00000+0 0  9997
2 36112  64.2027 148.8504 0005142 177.6998   8.6963  2.13101420 80009
COSMOS 2459 (731)       
1 36400U 10007A   20086.21351422 -.00000057  00000-0  10000-3 0  9994
2 36400  65.8605  30.6752 0027264 346.9621 117.5935  2.13105065 78368
COSMOS 2461 (735)       
1 36401U 10007B   20085.35133941 -.00000062  00000-0  10000-3 0  9999
2 36401  65.8514  30.6742 0006360  43.0203  29.1492  2.13101935 78348
COSMOS 2460 (732)       
1 36402U 10007C   20086.06956731 -.00000058  00000-0  10000-3 0  9994
2 36402  65.8437  30.6094 0002209 309.1722 353.2875  2.13101354 78355
COSMOS 2464 (736)       
1 37139U 10041C   20086.41426375  .00000026  00000-0  00000+0 0  9994
2 37139  64.2070 268.7486 0027723  14.8378 140.3107  2.13100565 74434
COSMOS 2474 (742)       
1 37829U 11055A   20085.91371169  .00000043  00000-0  00000+0 0  9999
2 37829  64.5396 149.9447 0009768 246.8381  48.6165  2.13101704 65992
COSMOS 2476 (744)       
1 37867U 11064A   20085.84808647  .00000043  00000-0  00000+0 0  9999
2 37867  64.5184 149.9913 0020278 240.0561  51.2765  2.13101903 65348
COSMOS 2477 (745)       
1 37868U 11064B   20081.62375988  .00000014  00000-0  00000+0 0  9997
2 37868  64.5274 150.1909 0017713 240.8173 228.2996  2.13101685 65210
COSMOS 2475 (743)       
1 37869U 11064C   20085.17462466  .00000043  00000-0  00000+0 0  9992
2 37869  64.5342 150.0689 0021970 262.2419   8.2865  2.13101824 65296
COSMOS 2485 (747)       
1 39155U 13019A   20085.30958580  .00000043  00000-0  00000+0 0  9996
2 39155  64.6870 150.2596 0020740 235.4017  47.4114  2.13101794 53804
COSMOS 2492 (754)       
1 39620U 14012A   20086.19478603 -.00000057  00000-0  10000-3 0  9999
2 39620  65.7322  30.4004 0015811 322.9431 314.0697  2.13103199 46771
COSMOS 2500 (755)       
1 40001U 14032A   20085.78241593 -.00000060  00000-0  00000+0 0  9995
2 40001  65.6739  30.3349 0006172 228.6345 312.7570  2.13102602 44988
COSMOS 2501 (702K)      
1 40315U 14075A   20085.37729769  .00000020  00000-0  00000+0 0  9996
2 40315  63.9232 269.7631 0014831 204.2365 182.0149  2.13098540 41386
COSMOS 2514 (751)       
1 41330U 16008A   20086.11988149 -.00000058  00000-0  00000+0 0  9996
2 41330  65.4759  30.2178 0009905 229.0961  33.4512  2.13102966 32151
COSMOS 2516 (753)       
1 41554U 16032A   20085.01580704  .00000019  00000-0  00000+0 0  9990
2 41554  64.1465 269.8229 0010261 213.6080 172.6574  2.13101742 29740
COSMOS 2522 (752)       
1 42939U 17055A   20085.34572137  .00000021  00000-0  00000+0 0  9994
2 42939  64.3752 269.9642 0005028 249.4985 256.4314  2.13101958 19500
COSMOS 2527 (756)       
1 43508U 18053A   20084.97488074  .00000043  00000-0  00000+0 0  9994
2 43508  64.8515 150.0991 0007919 235.8283  17.2798  2.13102572 13789
COSMOS 2529 (757)       
1 43687U 18086A   20085.41291921  .00000021  00000-0  00000+0 0  9997
2 43687  64.5933 270.0624 0007903 280.1789 232.9231  2.13102024 10812
COSMOS 2534 (758)       
1 44299U 19030A   20085.07182434  .00000020  00000-0  00000+0 0  9996
2 44299  64.6603 269.8810 0011598 299.0431  87.4583  2.13101910  6459
